[{"OBJECT_NAME":"BLUEBON","OBJECT_ID":"2025-009CH","EPOCH":"2026-03-09T16:52:33.225312","MEAN_MOTION":15.29047254,"ECCENTRICITY":0.00011933,"INCLINATION":97.4017,"RA_OF_ASC_NODE":152.2033,"ARG_OF_PERICENTER":43.39,"MEAN_ANOMALY":316.7434,"EPHEMERIS_TYPE":0,"CLASSIFICATION_TYPE":"U","NORAD_CAT_ID":62688,"ELEMENT_SET_NO":999,"REV_AT_EPOCH":6376,"BSTAR":0.00037313027,"MEAN_MOTION_DOT":0.00010452,"MEAN_MOTION_DDOT":0},{"OBJECT_NAME":"D-SAT","OBJECT_ID":"2017-036AF","EPOCH":"2026-03-09T22:00:14.910336","MEAN_MOTION":15.15529522,"ECCENTRICITY":0.00852401,"INCLINATION":97.5487,"RA_OF_ASC_NODE":48.252,"ARG_OF_PERICENTER":144.4633,"MEAN_ANOMALY":216.2319,"EPHEMERIS_TYPE":0,"CLASSIFICATION_TYPE":"U","NORAD_CAT_ID":42794,"ELEMENT_SET_NO":999,"REV_AT_EPOCH":47581,"BSTAR":0.00038655305,"MEAN_MOTION_DOT":7.964e-5,"MEAN_MOTION_DDOT":0}]
